{"type": "FeatureCollection", "features": [ {"type": "Feature", "properties": {"norad_id": 40664, "name": "SKY MEXICO-1", "group": "intelsat", "lat": -0.04090837024516236, "lon": -93.45086471741931, "alt_km": 35776.848760871384, "timestamp": "2025-12-22T16:55:17.118218+00:00", "meta": {"OBJECT_NAME": "SKY MEXICO-1", "OBJECT_ID": "2015-026B", "EPOCH": "2025-12-22T06:13:05.254176", "MEAN_MOTION": 1.00271238, "ECCENTRICITY": 0.00023868, "INCLINATION": 0.0157, "RA_OF_ASC_NODE": 359.5095, "ARG_OF_PERICENTER": 288.2085, "MEAN_ANOMALY": 177.8602, "EPHEMERIS_TYPE": 0, "CLASSIFICATION_TYPE": "U", "NORAD_CAT_ID": 40664, "ELEMENT_SET_NO": 999, "REV_AT_EPOCH": 3868, "BSTAR": 0, "MEAN_MOTION_DOT": -2.13e-06, "MEAN_MOTION_DDOT": 0}, "tle": {"line1": "1 40664U 15026B   25356.25908859 -.00000213  00000+0  00000+0 0  9996", "line2": "2 40664   0.0157 359.5095 0002386 288.2085 177.8602  1.00271238 38683"}}, "geometry": {"type": "Point", "coordinates": [-93.45086471741931, -0.04090837024516236]}}, {"type": "Feature", "properties": {"norad_id": 40874, "name": "INTELSAT 34 (IS-34)", "group": "intelsat", "lat": -0.021691440096922355, "lon": -70.15959340796503, "alt_km": 35788.1426413297, "timestamp": "2025-12-22T16:55:17.118233+00:00", "meta": {"OBJECT_NAME": "INTELSAT 34 (IS-34)", "OBJECT_ID": "2015-039A", "EPOCH": "2025-12-22T05:24:38.582784", "MEAN_MOTION": 1.00273719, "ECCENTRICITY": 7.787e-05, "INCLINATION": 0.0116, "RA_OF_ASC_NODE": 317.9969, "ARG_OF_PERICENTER": 191.0981, "MEAN_ANOMALY": 327.6105, "EPHEMERIS_TYPE": 0, "CLASSIFICATION_TYPE": "U", "NORAD_CAT_ID": 40874, "ELEMENT_SET_NO": 999, "REV_AT_EPOCH": 3785, "BSTAR": 0, "MEAN_MOTION_DOT": -2.63e-06, "MEAN_MOTION_DDOT": 0}, "tle": {"line1": "1 40874U 15039A   25356.22544656 -.00000263  00000+0  00000+0 0  9996", "line2": "2 40874   0.0116 317.9969 0000778 191.0981 327.6105  1.00273719 37855"}}, "geometry": {"type": "Point", "coordinates": [-70.15959340796503, -0.021691440096922355]}}, {"type": "Feature", "properties": {"norad_id": 41581, "name": "INTELSAT 31 (IS-31)", "group": "intelsat", "lat": -0.02186279263882516, "lon": -109.64578935091143, "alt_km": 35776.06170414385, "timestamp": "2025-12-22T16:55:17.118245+00:00", "meta": {"OBJECT_NAME": "INTELSAT 31 (IS-31)", "OBJECT_ID": "2016-035A", "EPOCH": "2025-12-22T04:09:14.897376", "MEAN_MOTION": 1.00291043, "ECCENTRICITY": 0.0002768, "INCLINATION": 0.032, "RA_OF_ASC_NODE": 260.9833, "ARG_OF_PERICENTER": 282.9191, "MEAN_ANOMALY": 234.3596, "EPHEMERIS_TYPE": 0, "CLASSIFICATION_TYPE": "U", "NORAD_CAT_ID": 41581, "ELEMENT_SET_NO": 999, "REV_AT_EPOCH": 3490, "BSTAR": 0, "MEAN_MOTION_DOT": -1.32e-06, "MEAN_MOTION_DDOT": 0}, "tle": {"line1": "1 41581U 16035A   25356.17308909 -.00000132  00000+0  00000+0 0  9997", "line2": "2 41581   0.0320 260.9833 0002768 282.9191 234.3596  1.00291043 34900"}}, "geometry": {"type": "Point", "coordinates": [-109.64578935091143, -0.02186279263882516]}}, {"type": "Feature", "properties": {"norad_id": 41747, "name": "INTELSAT 36 (IS-36)", "group": "intelsat", "lat": 0.028434589241674055, "lon": 53.82652187584132, "alt_km": 35786.13864008158, "timestamp": "2025-12-22T16:55:17.118257+00:00", "meta": {"OBJECT_NAME": "INTELSAT 36 (IS-36)", "OBJECT_ID": "2016-053A", "EPOCH": "2025-12-22T03:13:12.764928", "MEAN_MOTION": 1.00270934, "ECCENTRICITY": 9.841e-05, "INCLINATION": 0.0105, "RA_OF_ASC_NODE": 357.6786, "ARG_OF_PERICENTER": 328.626, "MEAN_ANOMALY": 241.4387, "EPHEMERIS_TYPE": 0, "CLASSIFICATION_TYPE": "U", "NORAD_CAT_ID": 41747, "ELEMENT_SET_NO": 999, "REV_AT_EPOCH": 3417, "BSTAR": 0, "MEAN_MOTION_DOT": -2e-08, "MEAN_MOTION_DDOT": 0}, "tle": {"line1": "1 41747U 16053A   25356.13417552 -.00000002  00000+0  00000+0 0  9998", "line2": "2 41747   0.0105 357.6786 0000984 328.6260 241.4387  1.00270934 34171"}}, "geometry": {"type": "Point", "coordinates": [53.82652187584132, 0.028434589241674055]}}, {"type": "Feature", "properties": {"norad_id": 41945, "name": "INTELSAT 32E (IS-32E)", "group": "intelsat", "lat": -0.037422309249562795, "lon": -57.87394821048055, "alt_km": 35787.075073555345, "timestamp": "2025-12-22T16:55:17.118269+00:00", "meta": {"OBJECT_NAME": "INTELSAT 32E (IS-32E)", "OBJECT_ID": "2017-007B", "EPOCH": "2025-12-22T05:16:38.623008", "MEAN_MOTION": 1.00267068, "ECCENTRICITY": 7.668e-05, "INCLINATION": 0.0254, "RA_OF_ASC_NODE": 68.7596, "ARG_OF_PERICENTER": 316.2563, "MEAN_ANOMALY": 101.9957, "EPHEMERIS_TYPE": 0, "CLASSIFICATION_TYPE": "U", "NORAD_CAT_ID": 41945, "ELEMENT_SET_NO": 999, "REV_AT_EPOCH": 3245, "BSTAR": 0, "MEAN_MOTION_DOT": -2.47e-06, "MEAN_MOTION_DDOT": 0}, "tle": {"line1": "1 41945U 17007B   25356.21989147 -.00000247  00000+0  00000+0 0  9992", "line2": "2 41945   0.0254  68.7596 0000766 316.2563 101.9957  1.00267068 32458"}}, "geometry": {"type": "Point", "coordinates": [-57.87394821048055, -0.037422309249562795]}}, {"type": "Feature", "properties": {"norad_id": 42818, "name": "INTELSAT 35E (IS-35E)", "group": "intelsat", "lat": -0.04138539425839462, "lon": -49.17417018804738, "alt_km": 35780.27031534914, "timestamp": "2025-12-22T16:55:17.118281+00:00", "meta": {"OBJECT_NAME": "INTELSAT 35E (IS-35E)", "OBJECT_ID": "2017-041A", "EPOCH": "2025-12-22T06:09:10.912320", "MEAN_MOTION": 1.00267807, "ECCENTRICITY": 0.00019422, "INCLINATION": 0.022, "RA_OF_ASC_NODE": 14.0034, "ARG_OF_PERICENTER": 264.7914, "MEAN_ANOMALY": 230.0647, "EPHEMERIS_TYPE": 0, "CLASSIFICATION_TYPE": "U", "NORAD_CAT_ID": 42818, "ELEMENT_SET_NO": 999, "REV_AT_EPOCH": 3104, "BSTAR": 0, "MEAN_MOTION_DOT": 0, "MEAN_MOTION_DDOT": 0}, "tle": {"line1": "1 42818U 17041A   25356.25637630  .00000000  00000+0  00000+0 0  9997", "line2": "2 42818   0.0220  14.0034 0001942 264.7914 230.0647  1.00267807 31041"}}, "geometry": {"type": "Point", "coordinates": [-49.17417018804738, -0.04138539425839462]}}, {"type": "Feature", "properties": {"norad_id": 42950, "name": "INTELSAT 37E (IS-37E)", "group": "intelsat", "lat": -0.021192195652086108, "lon": -32.645871820541714, "alt_km": 35781.10089429919, "timestamp": "2025-12-22T16:55:17.118292+00:00", "meta": {"OBJECT_NAME": "INTELSAT 37E (IS-37E)", "OBJECT_ID": "2017-059A", "EPOCH": "2025-12-22T04:31:12.793728", "MEAN_MOTION": 1.00271851, "ECCENTRICITY": 0.00028938, "INCLINATION": 0.0055, "RA_OF_ASC_NODE": 13.5689, "ARG_OF_PERICENTER": 247.6376, "MEAN_ANOMALY": 239.5969, "EPHEMERIS_TYPE": 0, "CLASSIFICATION_TYPE": "U", "NORAD_CAT_ID": 42950, "ELEMENT_SET_NO": 999, "REV_AT_EPOCH": 3029, "BSTAR": 0, "MEAN_MOTION_DOT": -1.19e-06, "MEAN_MOTION_DDOT": 0}, "tle": {"line1": "1 42950U 17059A   25356.18834252 -.00000119  00000+0  00000+0 0  9996", "line2": "2 42950   0.0055  13.5689 0002893 247.6376 239.5969  1.00271851 30293"}}, "geometry": {"type": "Point", "coordinates": [-32.645871820541714, -0.021192195652086108]}}, {"type": "Feature", "properties": {"norad_id": 43632, "name": "AZERSPACE 2 (IS-38)", "group": "intelsat", "lat": 0.024888950673837555, "lon": 30.441654900466045, "alt_km": 35789.185047553576, "timestamp": "2025-12-22T16:55:17.118304+00:00", "meta": {"OBJECT_NAME": "AZERSPACE 2 (IS-38)", "OBJECT_ID": "2018-074A", "EPOCH": "2025-12-22T03:06:28.410336", "MEAN_MOTION": 1.00270026, "ECCENTRICITY": 0.00011749, "INCLINATION": 0.0187, "RA_OF_ASC_NODE": 348.1932, "ARG_OF_PERICENTER": 279.5458, "MEAN_ANOMALY": 274.9316, "EPHEMERIS_TYPE": 0, "CLASSIFICATION_TYPE": "U", "NORAD_CAT_ID": 43632, "ELEMENT_SET_NO": 999, "REV_AT_EPOCH": 2667, "BSTAR": 0, "MEAN_MOTION_DOT": 1.59e-06, "MEAN_MOTION_DDOT": 0}, "tle": {"line1": "1 43632U 18074A   25356.12949549  .00000159  00000+0  00000+0 0  9995", "line2": "2 43632   0.0187 348.1932 0001174 279.5458 274.9316  1.00270026 26670"}}, "geometry": {"type": "Point", "coordinates": [30.441654900466045, 0.024888950673837555]}}, {"type": "Feature", "properties": {"norad_id": 43633, "name": "HORIZONS-3E", "group": "intelsat", "lat": -0.008710173829723201, "lon": 154.29908324795514, "alt_km": 35788.72741712314, "timestamp": "2025-12-22T16:55:17.118316+00:00", "meta": {"OBJECT_NAME": "HORIZONS-3E", "OBJECT_ID": "2018-074B", "EPOCH": "2025-12-22T05:24:30.190752", "MEAN_MOTION": 1.00270178, "ECCENTRICITY": 5.673e-05, "INCLINATION": 0.0097, "RA_OF_ASC_NODE": 216.8452, "ARG_OF_PERICENTER": 94.9387, "MEAN_ANOMALY": 29.3592, "EPHEMERIS_TYPE": 0, "CLASSIFICATION_TYPE": "U", "NORAD_CAT_ID": 43633, "ELEMENT_SET_NO": 999, "REV_AT_EPOCH": 2656, "BSTAR": 0, "MEAN_MOTION_DOT": 0, "MEAN_MOTION_DDOT": 0}, "tle": {"line1": "1 43633U 18074B   25356.22534943  .00000000  00000+0  00000+0 0  9990", "line2": "2 43633   0.0097 216.8452 0000567  94.9387  29.3592  1.00270178 26568"}}, "geometry": {"type": "Point", "coordinates": [154.29908324795514, -0.008710173829723201]}}, {"type": "Feature", "properties": {"norad_id": 44333, "name": "AT&T T-16", "group": "intelsat", "lat": -0.015534904874130156, "lon": -115.51743486905109, "alt_km": 35786.81784155832, "timestamp": "2025-12-22T16:55:17.118328+00:00", "meta": {"OBJECT_NAME": "AT&T T-16", "OBJECT_ID": "2019-034A", "EPOCH": "2025-12-22T06:15:17.426304", "MEAN_MOTION": 1.00272128, "ECCENTRICITY": 0.00010626, "INCLINATION": 0.0194, "RA_OF_ASC_NODE": 60.9722, "ARG_OF_PERICENTER": 83.2069, "MEAN_ANOMALY": 299.8613, "EPHEMERIS_TYPE": 0, "CLASSIFICATION_TYPE": "U", "NORAD_CAT_ID": 44333, "ELEMENT_SET_NO": 999, "REV_AT_EPOCH": 2386, "BSTAR": 0, "MEAN_MOTION_DOT": -9.4e-07, "MEAN_MOTION_DDOT": 0}, "tle": {"line1": "1 44333U 19034A   25356.26061836 -.00000094  00000+0  00000+0 0  9999", "line2": "2 44333   0.0194  60.9722 0001062  83.2069 299.8613  1.00272128 23866"}}, "geometry": {"type": "Point", "coordinates": [-115.51743486905109, -0.015534904874130156]}}]}